{"fetched_at":"2026-06-08T15:45:21Z","count":3384,"tles":[{"name":"DELTA 2 R/B(1)","line1":"1 20453U 90008B   26159.08654944  .00084361  00000+0  65682-3 0  9995","line2":"2 20453  35.6007 296.4795 0067347  27.7476 332.6833 15.67415827940275","category":"Other"},{"name":"SL-14 R/B","line1":"1 20262U 89080C   26158.96273640  .00000488  00000+0  14589-3 0  9995","line2":"2 20262  82.5919 115.2334 1229278 338.5079  16.8358 12.50564849671439","category":"Other"},{"name":"SL-14 R/B","line1":"1 17912U 87038B   26159.16979341  .00000354  00000+0  38217-4 0  9995","line2":"2 17912  82.5015 211.5659 0018158 222.1416 137.8405 14.85440081 92669","category":"Other"},{"name":"COSMOS 2058","line1":"1 20465U 90010A   26158.93643528  .00003752  00000+0  21699-3 0  9995","line2":"2 20465  82.4665 318.4791 0010346  31.6545 328.5305 15.11952217955875","category":"Other"},{"name":"SL-14 R/B","line1":"1 20466U 90010B   26159.13048916  .00000396  00000+0  44953-4 0  9999","line2":"2 20466  82.5017 182.4504 0019896   6.5086 353.6384 14.83640791941891","category":"Other"},{"name":"SL-16 R/B","line1":"1 16182U 85097B   26159.18042007 -.00000050  00000+0 -13207-5 0  9996","line2":"2 16182  71.0038 310.0400 0005617 129.4564  42.7563 14.16612393100045","category":"Other"},{"name":"SL-16 R/B","line1":"1 19120U 88039B   26158.96077955  .00000125  00000+0  81753-4 0  9996","line2":"2 19120  71.0148 237.6673 0022736 206.7586 153.2368 14.19629034971198","category":"Other"},{"name":"SL-14 R/B","line1":"1 18749U 88001B   26158.93023691  .00000501  00000+0  55082-4 0  9990","line2":"2 18749  82.5124 110.4819 0016687 302.9570  57.0041 14.85603059 55425","category":"Other"},{"name":"COSMOS 1844","line1":"1 17973U 87041A   26159.12646360 -.00000132  00000+0 -43385-4 0  9992","line2":"2 17973  70.8984 203.4193 0033256 248.6181 111.1391 14.14569915 16375","category":"Other"},{"name":"COSMOS 1975","line1":"1 19573U 88093A   26159.12460431  .00007923  00000+0  27799-3 0  9994","line2":"2 19573  82.5200  26.8176 0010565 203.4179 156.6582 15.29211307 33221","category":"Other"},{"name":"COSMOS 1743","line1":"1 16719U 86034A   26158.94839244  .00048250  00000+0  46857-3 0  9991","line2":"2 16719  82.5286 338.5500 0003536 315.6108  44.4868 15.66116987194347","category":"Other"},{"name":"COSMOS 1953","line1":"1 19210U 88050A   26159.12362999  .00007783  00000+0  26765-3 0  9991","line2":"2 19210  82.5076  67.1727 0011351 154.5664 205.6137 15.29851465 51607","category":"Other"},{"name":"DELTA 1 R/B","line1":"1 20323U 89089B   26159.11481979  .00000376  00000+0  10167-3 0  9990","line2":"2 20323  97.0641 352.1247 0068454 195.6386 164.2699 14.50725568908847","category":"Other"},{"name":"SL-14 R/B","line1":"1 18153U 87055B   26158.99622354  .00000475  00000+0  51669-4 0  9991","line2":"2 18153  82.4996 263.8927 0022098  76.2131 284.1542 14.85704817 83345","category":"Other"},{"name":"SL-14 R/B","line1":"1 19574U 88093B   26159.20152301  .00000481  00000+0  52368-4 0  9991","line2":"2 19574  82.5305 317.0816 0022189  98.1209  74.3909 14.85734946 14455","category":"Other"},{"name":"SL-14 R/B","line1":"1 16792U 86046B   26159.06044788  .00000404  00000+0  43718-4 0  9993","line2":"2 16792  82.4817 354.8006 0021650 290.7360  69.1536 14.85665172139822","category":"Other"},{"name":"SL-8 R/B","line1":"1 19257U 88053B   26159.19780955  .00000260  00000+0  92624-4 0  9999","line2":"2 19257  74.0478 305.6279 0019225 104.1970  68.6400 14.38964326989612","category":"Other"},{"name":"SL-12 R/B(2)","line1":"1 15772U 85042D   26159.03930037  .00000070  00000+0  52964-4 0  9995","line2":"2 15772  71.1085 256.8429 0035792 341.7101 191.6683 14.22004337127230","category":"Other"},{"name":"COSMOS 1867","line1":"1 18187U 87060A   26159.05130293 -.00000025  00000+0  28078-4 0  9998","line2":"2 18187  65.0116  53.6444 0016321 282.0532  77.8723 14.31514869 32873","category":"Other"},{"name":"SL-14 R/B","line1":"1 17567U 87024B   26159.06104326  .00000422  00000+0  45174-4 0  9994","line2":"2 17567  82.5284   7.8295 0017334 325.6155  34.3938 14.86207476101550","category":"Other"},{"name":"SL-16 R/B","line1":"1 19650U 88102B   26158.89341897 -.00000047  00000+0  46148-6 0  9991","line2":"2 19650  71.0005 321.6947 0016113 238.2206 121.7348 14.16166746939664","category":"Other"},{"name":"SL-14 R/B","line1":"1 16882U 86055B   26159.13010311  .00000449  00000+0  48768-4 0  9995","line2":"2 16882  82.5211  41.6483 0019812  36.7617  76.3618 14.85717218132790","category":"Other"},{"name":"COSMOS 1833","line1":"1 17589U 87027A   26159.18876878  .00000310  00000+0  19153-3 0  9995","line2":"2 17589  70.9157 135.7830 0022579  70.0518 290.3032 14.13043216 23104","category":"Other"},{"name":"AJISAI (EGS)","line1":"1 16908U 86061A   26159.14835041 -.00000096  00000+0  91218-5 0  9995","line2":"2 16908  50.0060 175.1902 0011274 157.6718 304.2615 12.44516707479268","category":"Other"}]}